[{"OBJECT_NAME":"STARLINK-5634","OBJECT_ID":"2023-014BA","EPOCH":"2026-03-09T19:14:07.061568","MEAN_MOTION":14.98332651,"ECCENTRICITY":0.00034121,"INCLINATION":69.9994,"RA_OF_ASC_NODE":104.2513,"ARG_OF_PERICENTER":269.9293,"MEAN_ANOMALY":90.1475,"EPHEMERIS_TYPE":0,"CLASSIFICATION_TYPE":"U","NORAD_CAT_ID":55439,"ELEMENT_SET_NO":999,"REV_AT_EPOCH":17108,"BSTAR":4.6140367e-5,"MEAN_MOTION_DOT":4.58e-6,"MEAN_MOTION_DDOT":0},{"OBJECT_NAME":"FENGYUN 1C DEB","OBJECT_ID":"1999-025BKG","EPOCH":"2026-03-07T13:45:43.096608","MEAN_MOTION":14.85582818,"ECCENTRICITY":0.0064954,"INCLINATION":96.5618,"RA_OF_ASC_NODE":101.964,"ARG_OF_PERICENTER":251.088,"MEAN_ANOMALY":261.3714,"EPHEMERIS_TYPE":0,"CLASSIFICATION_TYPE":"U","NORAD_CAT_ID":31202,"ELEMENT_SET_NO":999,"REV_AT_EPOCH":335,"BSTAR":0.0013766,"MEAN_MOTION_DOT":0.00012341,"MEAN_MOTION_DDOT":0}]
